{
  "type": "FeatureCollection",
  "features": [
    {
      "type": "Feature",
      "properties": {
        "norad_id": 40069,
        "name": "METEOR-M 2",
        "group": "weather",
        "lat": -76.56471812808773,
        "lon": 119.138599144044,
        "alt_km": 828.1923602589704,
        "timestamp": "2025-12-26T19:22:38.536760+00:00",
        "meta_object_name": "METEOR-M 2",
        "meta_object_id": "2014-037A",
        "meta_epoch": "2025-12-26T14:46:53.231232",
        "meta_mean_motion": 14.2139154,
        "meta_eccentricity": 0.00056953,
        "meta_inclination": 98.4923,
        "meta_ra_of_asc_node": 337.6692,
        "meta_arg_of_pericenter": 166.8667,
        "meta_mean_anomaly": 193.266,
        "meta_ephemeris_type": 0,
        "meta_classification_type": "U",
        "meta_norad_cat_id": 40069,
        "meta_element_set_no": 999,
        "meta_rev_at_epoch": 59480,
        "meta_bstar": 4.6014609e-05,
        "meta_mean_motion_dot": 5.9e-07,
        "meta_mean_motion_ddot": 0,
        "tle_line1": "1 40069U 14037A   25360.61589388  .00000059  00000+0  46015-4 0  9991",
        "tle_line2": "2 40069  98.4923 337.6692 0005695 166.8667 193.2660 14.21391540594800"
      },
      "geometry": {
        "type": "Point",
        "coordinates": [
          119.138599144044,
          -76.56471812808773
        ]
      }
    },
    {
      "type": "Feature",
      "properties": {
        "norad_id": 40267,
        "name": "HIMAWARI-8",
        "group": "weather",
        "lat": -0.019882232021312674,
        "lon": 166.85651407344704,
        "alt_km": 35789.63565840145,
        "timestamp": "2025-12-26T19:22:38.536772+00:00",
        "meta_object_name": "HIMAWARI-8",
        "meta_object_id": "2014-060A",
        "meta_epoch": "2025-12-26T08:33:59.245344",
        "meta_mean_motion": 1.0027063,
        "meta_eccentricity": 0.00010105,
        "meta_inclination": 0.0427,
        "meta_ra_of_asc_node": 196.506,
        "meta_arg_of_pericenter": 108.6661,
        "meta_mean_anomaly": 59.0936,
        "meta_ephemeris_type": 0,
        "meta_classification_type": "U",
        "meta_norad_cat_id": 40267,
        "meta_element_set_no": 999,
        "meta_rev_at_epoch": 4102,
        "meta_bstar": 0,
        "meta_mean_motion_dot": -2.54e-06,
        "meta_mean_motion_ddot": 0,
        "tle_line1": "1 40267U 14060A   25360.35693571 -.00000254  00000+0  00000+0 0  9995",
        "tle_line2": "2 40267   0.0427 196.5060 0001010 108.6661  59.0936  1.00270630 41029"
      },
      "geometry": {
        "type": "Point",
        "coordinates": [
          166.85651407344704,
          -0.019882232021312674
        ]
      }
    },
    {
      "type": "Feature",
      "properties": {
        "norad_id": 40367,
        "name": "FENGYUN 2G",
        "group": "weather",
        "lat": 4.0315518455779475,
        "lon": 125.36495726562875,
        "alt_km": 35786.626846633124,
        "timestamp": "2025-12-26T19:22:38.536784+00:00",
        "meta_object_name": "FENGYUN 2G",
        "meta_object_id": "2014-090A",
        "meta_epoch": "2025-12-26T16:11:58.919136",
        "meta_mean_motion": 1.00281469,
        "meta_eccentricity": 0.00017777,
        "meta_inclination": 5.2004,
        "meta_ra_of_asc_node": 74.9247,
        "meta_arg_of_pericenter": 170.4228,
        "meta_mean_anomaly": 192.356,
        "meta_ephemeris_type": 0,
        "meta_classification_type": "U",
        "meta_norad_cat_id": 40367,
        "meta_element_set_no": 999,
        "meta_rev_at_epoch": 4027,
        "meta_bstar": 0,
        "meta_mean_motion_dot": -2.81e-06,
        "meta_mean_motion_ddot": 0,
        "tle_line1": "1 40367U 14090A   25360.67498749 -.00000281  00000+0  00000+0 0  9994",
        "tle_line2": "2 40367   5.2004  74.9247 0001777 170.4228 192.3560  1.00281469 40272"
      },
      "geometry": {
        "type": "Point",
        "coordinates": [
          125.36495726562875,
          4.0315518455779475
        ]
      }
    },
    {
      "type": "Feature",
      "properties": {
        "norad_id": 40732,
        "name": "METEOSAT-11 (MSG-4)",
        "group": "weather",
        "lat": -1.64465334269464,
        "lon": 35.41666842631371,
        "alt_km": 35789.19391499155,
        "timestamp": "2025-12-26T19:22:38.536797+00:00",
        "meta_object_name": "METEOSAT-11 (MSG-4)",
        "meta_object_id": "2015-034A",
        "meta_epoch": "2025-12-25T16:31:52.264704",
        "meta_mean_motion": 1.00271545,
        "meta_eccentricity": 6.999e-05,
        "meta_inclination": 2.7688,
        "meta_ra_of_asc_node": 71.966,
        "meta_arg_of_pericenter": 136.703,
        "meta_mean_anomaly": 142.9271,
        "meta_ephemeris_type": 0,
        "meta_classification_type": "U",
        "meta_norad_cat_id": 40732,
        "meta_element_set_no": 999,
        "meta_rev_at_epoch": 547,
        "meta_bstar": 0,
        "meta_mean_motion_dot": 8.2e-07,
        "meta_mean_motion_ddot": 0,
        "tle_line1": "1 40732U 15034A   25359.68879936  .00000082  00000+0  00000+0 0  9997",
        "tle_line2": "2 40732   2.7688  71.9660 0000699 136.7030 142.9271  1.00271545  5479"
      },
      "geometry": {
        "type": "Point",
        "coordinates": [
          35.41666842631371,
          -1.64465334269464
        ]
      }
    },
    {
      "type": "Feature",
      "properties": {
        "norad_id": 41105,
        "name": "ELEKTRO-L 2",
        "group": "weather",
        "lat": -5.469475987815494,
        "lon": 11.922053719084051,
        "alt_km": 35787.09956587039,
        "timestamp": "2025-12-26T19:22:38.536809+00:00",
        "meta_object_name": "ELEKTRO-L 2",
        "meta_object_id": "2015-074A",
        "meta_epoch": "2025-12-26T06:33:21.537216",
        "meta_mean_motion": 1.00271736,
        "meta_eccentricity": 0.00036344,
        "meta_inclination": 6.2575,
        "meta_ra_of_asc_node": 72.6671,
        "meta_arg_of_pericenter": 208.1053,
        "meta_mean_anomaly": 258.1181,
        "meta_ephemeris_type": 0,
        "meta_classification_type": "U",
        "meta_norad_cat_id": 41105,
        "meta_element_set_no": 999,
        "meta_rev_at_epoch": 3677,
        "meta_bstar": 0,
        "meta_mean_motion_dot": -9.7e-07,
        "meta_mean_motion_ddot": 0,
        "tle_line1": "1 41105U 15074A   25360.27316594 -.00000097  00000+0  00000+0 0  9996",
        "tle_line2": "2 41105   6.2575  72.6671 0003634 208.1053 258.1181  1.00271736 36778"
      },
      "geometry": {
        "type": "Point",
        "coordinates": [
          11.922053719084051,
          -5.469475987815494
        ]
      }
    },
    {
      "type": "Feature",
      "properties": {
        "norad_id": 41752,
        "name": "INSAT-3DR",
        "group": "weather",
        "lat": 0.02667673787761209,
        "lon": 100.16768582704393,
        "alt_km": 35846.41478722018,
        "timestamp": "2025-12-26T19:22:38.536822+00:00",
        "meta_object_name": "INSAT-3DR",
        "meta_object_id": "2016-054A",
        "meta_epoch": "2025-12-26T03:06:52.543584",
        "meta_mean_motion": 1.00271485,
        "meta_eccentricity": 0.0014374,
        "meta_inclination": 0.0398,
        "meta_ra_of_asc_node": 84.8108,
        "meta_arg_of_pericenter": 187.3091,
        "meta_mean_anomaly": 303.4691,
        "meta_ephemeris_type": 0,
        "meta_classification_type": "U",
        "meta_norad_cat_id": 41752,
        "meta_element_set_no": 999,
        "meta_rev_at_epoch": 3408,
        "meta_bstar": 0,
        "meta_mean_motion_dot": -5.5e-07,
        "meta_mean_motion_ddot": 0,
        "tle_line1": "1 41752U 16054A   25360.12977481 -.00000055  00000+0  00000+0 0  9999",
        "tle_line2": "2 41752   0.0398  84.8108 0014374 187.3091 303.4691  1.00271485 34087"
      },
      "geometry": {
        "type": "Point",
        "coordinates": [
          100.16768582704393,
          0.02667673787761209
        ]
      }
    },
    {
      "type": "Feature",
      "properties": {
        "norad_id": 41836,
        "name": "HIMAWARI-9",
        "group": "weather",
        "lat": 0.01765388592267969,
        "lon": 166.97931356533752,
        "alt_km": 35789.95859824884,
        "timestamp": "2025-12-26T19:22:38.536846+00:00",
        "meta_object_name": "HIMAWARI-9",
        "meta_object_id": "2016-064A",
        "meta_epoch": "2025-12-26T00:44:38.656608",
        "meta_mean_motion": 1.00271993,
        "meta_eccentricity": 0.00010793,
        "meta_inclination": 0.0124,
        "meta_ra_of_asc_node": 80.1849,
        "meta_arg_of_pericenter": 234.8379,
        "meta_mean_anomaly": 291.7052,
        "meta_ephemeris_type": 0,
        "meta_classification_type": "U",
        "meta_norad_cat_id": 41836,
        "meta_element_set_no": 999,
        "meta_rev_at_epoch": 3347,
        "meta_bstar": 0,
        "meta_mean_motion_dot": -2.53e-06,
        "meta_mean_motion_ddot": 0,
        "tle_line1": "1 41836U 16064A   25360.03100297 -.00000253  00000+0  00000+0 0  9996",
        "tle_line2": "2 41836   0.0124  80.1849 0001079 234.8379 291.7052  1.00271993 33479"
      },
      "geometry": {
        "type": "Point",
        "coordinates": [
          166.97931356533752,
          0.01765388592267969
        ]
      }
    }
  ]
}